SL-14 R/B               
1 21423U 91042B   26050.05297548  .00000370  00000+0  43811-4 0  9991
2 21423  82.4896 237.6614 0015767 305.3950  54.5790 14.81809583850315
ERS-1                   
1 21574U 91050A   26050.06828887  .00000264  00000+0  99192-4 0  9999
2 21574  98.7892  67.8345 0030892 257.1044 102.6692 14.39433570813054
ARIANE 40 R/B           
1 21610U 91050F   26050.16352709  .00000264  00000+0  91627-4 0  9991
2 21610  98.2054 103.0916 0004218 121.7169 238.4433 14.42879249816329
INTERCOSMOS 25          
1 21819U 91086A   26050.16435535  .00000790  00000+0  14952-3 0  9999
2 21819  82.6082 321.2028 1486997 156.8389 210.7496 12.11945224494446
SL-8 R/B                
1 21876U 92008B   26050.12521428  .00000045  00000+0  30537-4 0  9991
2 21876  82.9246 281.5904 0034494 184.4446 330.5582 13.75970104706861
SL-8 R/B                
1 21938U 92020B   26050.28243487  .00000095  00000+0  83275-4 0  9999
2 21938  82.9340 167.4237 0028574 351.7903  35.9457 13.75547004698603
USA 81                  
1 21949U 92023A   26050.28617965  .00000193  00000+0  64030-4 0  9997
2 21949  85.0115 142.0543 0002734  94.3782 265.7723 14.32361125 92152
COSMOS 2219             
1 22219U 92076A   26050.27051437  .00000255  00000+0  15825-3 0  9997
2 22219  71.0587  56.5737 0019862 231.7945 128.1390 14.14079653715777
SL-16 R/B               
1 22220U 92076B   26049.92672331 -.00000098  00000+0 -24868-4 0  9996
2 22220  70.9976 227.8964 0011132 130.8091 339.7783 14.16854695719170
COSMOS 2221             
1 22236U 92080A   26050.11172891  .00001651  00000+0  14429-3 0  9992
2 22236  82.5041 296.8757 0012833 254.5775 105.4029 14.96125061778012
SL-16 R/B               
1 22285U 92093B   26050.29460374  .00000308  00000+0  18189-3 0  9990
2 22285  71.0213  42.8816 0005584 313.5255  46.5404 14.15445528710550
COSMOS 2228             
1 22286U 92094A   26050.20711066  .00001750  00000+0  14900-3 0  9999
2 22286  82.5146 255.0102 0018250   8.7679 351.3858 14.97096986773296
