CCSDS_OMM_VERS = 2.0
CREATION_DATE  = 
ORIGINATOR     = 

OBJECT_NAME    = SL-14 R/B
OBJECT_ID      = 1991-042B
CENTER_NAME    = EARTH
REF_FRAME      = TEME
TIME_SYSTEM    = UTC
MEAN_ELEMENT_THEORY = SGP/SGP4

EPOCH          = 2026-02-19T01:16:17.081472
MEAN_MOTION    = 14.81809583
ECCENTRICITY   = .0015767
INCLINATION    = 82.4896
RA_OF_ASC_NODE = 237.6614
ARG_OF_PERICENTER = 305.3950
MEAN_ANOMALY   = 54.5790

EPHEMERIS_TYPE = 0
CLASSIFICATION_TYPE = U
NORAD_CAT_ID   = 21423
ELEMENT_SET_NO = 999
REV_AT_EPOCH   = 85031
BSTAR          = .43811468E-4
MEAN_MOTION_DOT = .37E-5
MEAN_MOTION_DDOT = 0

CCSDS_OMM_VERS = 2.0
CREATION_DATE  = 
ORIGINATOR     = 

OBJECT_NAME    = ERS-1
OBJECT_ID      = 1991-050A
CENTER_NAME    = EARTH
REF_FRAME      = TEME
TIME_SYSTEM    = UTC
MEAN_ELEMENT_THEORY = SGP/SGP4

EPOCH          = 2026-02-19T01:38:20.158368
MEAN_MOTION    = 14.39433570
ECCENTRICITY   = .00308921
INCLINATION    = 98.7892
RA_OF_ASC_NODE = 67.8345
ARG_OF_PERICENTER = 257.1044
MEAN_ANOMALY   = 102.6692

EPHEMERIS_TYPE = 0
CLASSIFICATION_TYPE = U
NORAD_CAT_ID   = 21574
ELEMENT_SET_NO = 999
REV_AT_EPOCH   = 81305
BSTAR          = .99191761E-4
MEAN_MOTION_DOT = .264E-5
MEAN_MOTION_DDOT = 0

CCSDS_OMM_VERS = 2.0
CREATION_DATE  = 
ORIGINATOR     = 

OBJECT_NAME    = ARIANE 40 R/B
OBJECT_ID      = 1991-050F
CENTER_NAME    = EARTH
REF_FRAME      = TEME
TIME_SYSTEM    = UTC
MEAN_ELEMENT_THEORY = SGP/SGP4

EPOCH          = 2026-02-19T03:55:28.740576
MEAN_MOTION    = 14.42879249
ECCENTRICITY   = .0004218
INCLINATION    = 98.2054
RA_OF_ASC_NODE = 103.0916
ARG_OF_PERICENTER = 121.7169
MEAN_ANOMALY   = 238.4433

EPHEMERIS_TYPE = 0
CLASSIFICATION_TYPE = U
NORAD_CAT_ID   = 21610
ELEMENT_SET_NO = 999
REV_AT_EPOCH   = 81632
BSTAR          = .91627443E-4
MEAN_MOTION_DOT = .264E-5
MEAN_MOTION_DDOT = 0

CCSDS_OMM_VERS = 2.0
CREATION_DATE  = 
ORIGINATOR     = 

OBJECT_NAME    = INTERCOSMOS 25
OBJECT_ID      = 1991-086A
CENTER_NAME    = EARTH
REF_FRAME      = TEME
TIME_SYSTEM    = UTC
MEAN_ELEMENT_THEORY = SGP/SGP4

EPOCH          = 2026-02-19T03:56:40.302240
MEAN_MOTION    = 12.11945224
ECCENTRICITY   = .14869976
INCLINATION    = 82.6082
RA_OF_ASC_NODE = 321.2028
ARG_OF_PERICENTER = 156.8389
MEAN_ANOMALY   = 210.7496

EPHEMERIS_TYPE = 0
CLASSIFICATION_TYPE = U
NORAD_CAT_ID   = 21819
ELEMENT_SET_NO = 999
REV_AT_EPOCH   = 49444
BSTAR          = .14952426E-3
MEAN_MOTION_DOT = .79E-5
MEAN_MOTION_DDOT = 0

CCSDS_OMM_VERS = 2.0
CREATION_DATE  = 
ORIGINATOR     = 

OBJECT_NAME    = SL-8 R/B
OBJECT_ID      = 1992-008B
CENTER_NAME    = EARTH
REF_FRAME      = TEME
TIME_SYSTEM    = UTC
MEAN_ELEMENT_THEORY = SGP/SGP4

EPOCH          = 2026-02-19T03:00:18.513792
MEAN_MOTION    = 13.75970104
ECCENTRICITY   = .00344941
INCLINATION    = 82.9246
RA_OF_ASC_NODE = 281.5904
ARG_OF_PERICENTER = 184.4446
MEAN_ANOMALY   = 330.5582

EPHEMERIS_TYPE = 0
CLASSIFICATION_TYPE = U
NORAD_CAT_ID   = 21876
ELEMENT_SET_NO = 999
REV_AT_EPOCH   = 70686
BSTAR          = .30537069E-4
MEAN_MOTION_DOT = .45E-6
MEAN_MOTION_DDOT = 0

CCSDS_OMM_VERS = 2.0
CREATION_DATE  = 
ORIGINATOR     = 

OBJECT_NAME    = SL-8 R/B
OBJECT_ID      = 1992-020B
CENTER_NAME    = EARTH
REF_FRAME      = TEME
TIME_SYSTEM    = UTC
MEAN_ELEMENT_THEORY = SGP/SGP4

EPOCH          = 2026-02-19T06:46:42.372768
MEAN_MOTION    = 13.75547004
ECCENTRICITY   = .00285744
INCLINATION    = 82.9340
RA_OF_ASC_NODE = 167.4237
ARG_OF_PERICENTER = 351.7903
MEAN_ANOMALY   = 35.9457

EPHEMERIS_TYPE = 0
CLASSIFICATION_TYPE = U
NORAD_CAT_ID   = 21938
ELEMENT_SET_NO = 999
REV_AT_EPOCH   = 69860
BSTAR          = .83275065E-4
MEAN_MOTION_DOT = .95E-6
MEAN_MOTION_DDOT = 0

CCSDS_OMM_VERS = 2.0
CREATION_DATE  = 
ORIGINATOR     = 

OBJECT_NAME    = USA 81
OBJECT_ID      = 1992-023A
CENTER_NAME    = EARTH
REF_FRAME      = TEME
TIME_SYSTEM    = UTC
MEAN_ELEMENT_THEORY = SGP/SGP4

EPOCH          = 2026-02-19T06:52:05.921760
MEAN_MOTION    = 14.32361125
ECCENTRICITY   = .00027349
INCLINATION    = 85.0115
RA_OF_ASC_NODE = 142.0543
ARG_OF_PERICENTER = 94.3782
MEAN_ANOMALY   = 265.7723

EPHEMERIS_TYPE = 0
CLASSIFICATION_TYPE = U
NORAD_CAT_ID   = 21949
ELEMENT_SET_NO = 999
REV_AT_EPOCH   = 9215
BSTAR          = .64030079E-4
MEAN_MOTION_DOT = .193E-5
MEAN_MOTION_DDOT = 0

CCSDS_OMM_VERS = 2.0
CREATION_DATE  = 
ORIGINATOR     = 

OBJECT_NAME    = COSMOS 2219
OBJECT_ID      = 1992-076A
CENTER_NAME    = EARTH
REF_FRAME      = TEME
TIME_SYSTEM    = UTC
MEAN_ELEMENT_THEORY = SGP/SGP4

EPOCH          = 2026-02-19T06:29:32.441568
MEAN_MOTION    = 14.14079653
ECCENTRICITY   = .00198623
INCLINATION    = 71.0587
RA_OF_ASC_NODE = 56.5737
ARG_OF_PERICENTER = 231.7945
MEAN_ANOMALY   = 128.1390

EPHEMERIS_TYPE = 0
CLASSIFICATION_TYPE = U
NORAD_CAT_ID   = 22219
ELEMENT_SET_NO = 999
REV_AT_EPOCH   = 71577
BSTAR          = .15825227E-3
MEAN_MOTION_DOT = .255E-5
MEAN_MOTION_DDOT = 0

CCSDS_OMM_VERS = 2.0
CREATION_DATE  = 
ORIGINATOR     = 

OBJECT_NAME    = SL-16 R/B
OBJECT_ID      = 1992-076B
CENTER_NAME    = EARTH
REF_FRAME      = TEME
TIME_SYSTEM    = UTC
MEAN_ELEMENT_THEORY = SGP/SGP4

EPOCH          = 2026-02-18T22:14:28.893984
MEAN_MOTION    = 14.16854695
ECCENTRICITY   = .00111324
INCLINATION    = 70.9976
RA_OF_ASC_NODE = 227.8964
ARG_OF_PERICENTER = 130.8091
MEAN_ANOMALY   = 339.7783

EPHEMERIS_TYPE = 0
CLASSIFICATION_TYPE = U
NORAD_CAT_ID   = 22220
ELEMENT_SET_NO = 999
REV_AT_EPOCH   = 71917
BSTAR          = -.24868291E-4
MEAN_MOTION_DOT = -.98E-6
MEAN_MOTION_DDOT = 0

CCSDS_OMM_VERS = 2.0
CREATION_DATE  = 
ORIGINATOR     = 

OBJECT_NAME    = COSMOS 2221
OBJECT_ID      = 1992-080A
CENTER_NAME    = EARTH
REF_FRAME      = TEME
TIME_SYSTEM    = UTC
MEAN_ELEMENT_THEORY = SGP/SGP4

EPOCH          = 2026-02-19T02:40:53.377824
MEAN_MOTION    = 14.96125061
ECCENTRICITY   = .00128338
INCLINATION    = 82.5041
RA_OF_ASC_NODE = 296.8757
ARG_OF_PERICENTER = 254.5775
MEAN_ANOMALY   = 105.4029

EPHEMERIS_TYPE = 0
CLASSIFICATION_TYPE = U
NORAD_CAT_ID   = 22236
ELEMENT_SET_NO = 999
REV_AT_EPOCH   = 77801
BSTAR          = .14428953E-3
MEAN_MOTION_DOT = .1651E-4
MEAN_MOTION_DDOT = 0

CCSDS_OMM_VERS = 2.0
CREATION_DATE  = 
ORIGINATOR     = 

OBJECT_NAME    = SL-16 R/B
OBJECT_ID      = 1992-093B
CENTER_NAME    = EARTH
REF_FRAME      = TEME
TIME_SYSTEM    = UTC
MEAN_ELEMENT_THEORY = SGP/SGP4

EPOCH          = 2026-02-19T07:04:13.763136
MEAN_MOTION    = 14.15445528
ECCENTRICITY   = .00055841
INCLINATION    = 71.0213
RA_OF_ASC_NODE = 42.8816
ARG_OF_PERICENTER = 313.5255
MEAN_ANOMALY   = 46.5404

EPHEMERIS_TYPE = 0
CLASSIFICATION_TYPE = U
NORAD_CAT_ID   = 22285
ELEMENT_SET_NO = 999
REV_AT_EPOCH   = 71055
BSTAR          = .18188717E-3
MEAN_MOTION_DOT = .308E-5
MEAN_MOTION_DDOT = 0

CCSDS_OMM_VERS = 2.0
CREATION_DATE  = 
ORIGINATOR     = 

OBJECT_NAME    = COSMOS 2228
OBJECT_ID      = 1992-094A
CENTER_NAME    = EARTH
REF_FRAME      = TEME
TIME_SYSTEM    = UTC
MEAN_ELEMENT_THEORY = SGP/SGP4

EPOCH          = 2026-02-19T04:58:14.361024
MEAN_MOTION    = 14.97096986
ECCENTRICITY   = .00182507
INCLINATION    = 82.5146
RA_OF_ASC_NODE = 255.0102
ARG_OF_PERICENTER = 8.7679
MEAN_ANOMALY   = 351.3858

EPHEMERIS_TYPE = 0
CLASSIFICATION_TYPE = U
NORAD_CAT_ID   = 22286
ELEMENT_SET_NO = 999
REV_AT_EPOCH   = 77329
BSTAR          = .14899669E-3
MEAN_MOTION_DOT = .175E-4
MEAN_MOTION_DDOT = 0

